OBJECT_NAME,OBJECT_ID,EPOCH,MEAN_MOTION,ECCENTRICITY,INCLINATION,RA_OF_ASC_NODE,ARG_OF_PERICENTER,MEAN_ANOMALY,EPHEMERIS_TYPE,CLASSIFICATION_TYPE,NORAD_CAT_ID,ELEMENT_SET_NO,REV_AT_EPOCH,BSTAR,MEAN_MOTION_DOT,MEAN_MOTION_DDOT
AAC-HSI-SAT2,2023-084BX,2026-04-26T11:25:48.407808,15.20030029,.0012496,97.8179,264.8215,11.3608,348.7905,0,U,56995,999,15848,.19719E-3,.4184E-4,0
AAC-AIS-SAT2,2023-084BY,2026-04-26T13:26:04.616160,14.85183944,.0055928,98.1402,255.2904,265.5651,93.9172,0,U,56996,999,14571,.393E-3,.3402E-4,0
2023-085A,2023-085A,2026-04-26T11:48:10.597248,15.29302160,.0006765,97.4899,226.0707,201.1861,158.9100,0,U,57004,999,15866,.54671E-3,.15488E-3,0
2023-085J,2023-085J,2026-04-26T13:19:26.889312,15.33039115,.0005818,97.4875,228.3158,208.5767,151.5157,0,U,57012,999,15885,.56521E-3,.1799E-3,0
2023-085L,2023-085L,2026-04-26T12:18:02.972160,15.30444067,.0004281,97.4902,226.7753,211.2618,148.8369,0,U,57014,999,15871,.5492E-3,.16112E-3,0
2023-085V,2023-085V,2026-04-26T12:50:32.296992,15.32230241,.0004785,97.4886,227.4920,242.3639,117.7117,0,U,57023,999,15878,.55694E-3,.17277E-3,0
2023-085Y,2023-085Y,2026-04-26T12:23:53.706048,15.34116748,.0004578,97.4897,229.0558,235.0451,125.0362,0,U,57026,999,15889,.57776E-3,.19026E-3,0
2023-085AD,2023-085AD,2026-04-26T11:59:55.610880,15.33339167,.0007568,97.4886,228.3751,257.6550,102.3845,0,U,57031,999,15885,.56191E-3,.18061E-3,0
2023-085AJ,2023-085AJ,2026-04-26T12:56:29.992128,15.23283105,.000703,97.4821,222.4438,253.2363,106.8102,0,U,57036,999,15847,.41064E-3,.9676E-4,0
2023-085AK,2023-085AK,2026-04-26T12:33:36.447264,15.23353392,.0006237,97.4816,222.3173,277.4774,82.5754,0,U,57037,999,15846,.42695E-3,.10083E-3,0
2023-085AL,2023-085AL,2026-04-26T12:40:52.655808,15.33422962,.0005525,97.4884,228.1681,256.4611,103.6016,0,U,57038,999,15883,.57094E-3,.18394E-3,0
2023-085AS,2023-085AS,2026-04-26T11:49:05.579616,15.35054257,.0005932,97.4856,229.0881,260.4476,99.6097,0,U,57044,999,15891,.59208E-3,.20096E-3,0
NUSANTARA TIGA (SATRIA),2023-086A,2026-04-26T09:07:39.585792,1.00270431,.0004957,0.0466,316.8088,22.5510,157.9334,0,U,57045,999,924,0,-.247E-5,0
SHIYAN-25 (SY-25),2023-087A,2026-04-25T21:48:18.806400,16.01050232,.00153762,96.7667,177.4701,205.2506,154.8025,0,U,57047,999,16643,.20320389E-2,.1097296E-1,.62161592E-3
STARLINK-5850,2023-088B,2026-04-26T12:06:57.654144,15.26741853,.0001748,43.0008,200.7536,282.8407,77.2249,0,U,57049,999,15783,.35138E-4,.683E-5,0
STARLINK-5845,2023-088C,2026-04-26T06:58:35.025888,15.27577413,.0001934,43.0036,201.7270,280.8298,79.2336,0,U,57050,999,15761,.4253E-4,.908E-5,0
STARLINK-5839,2023-088D,2026-04-26T12:45:58.871232,15.26741737,.0000976,43.0033,200.0953,267.4516,92.6224,0,U,57051,999,15765,.31907E-4,.596E-5,0
STARLINK-5860,2023-088E,2026-04-26T12:48:45.849600,15.26741954,.0001193,43.0006,200.1106,262.0191,98.0525,0,U,57052,999,15765,.76449E-4,.1792E-4,0
STARLINK-5865,2023-088F,2026-04-26T12:01:08.713920,15.26751298,.0001632,43.0023,200.7223,271.6295,88.4369,0,U,57053,999,15764,.15024E-4,.143E-5,0
STARLINK-5881,2023-088G,2026-04-26T12:58:33.470688,15.27577320,.0001089,43.0001,200.1594,277.8669,82.2059,0,U,57054,999,15765,.45093E-5,-.138E-5,0
STARLINK-6237,2023-088H,2026-04-26T06:49:18.202080,15.27601554,.0001308,43.0006,201.6771,273.1170,86.9532,0,U,57055,999,15761,.19443E-3,.5096E-4,0
STARLINK-6353,2023-088J,2026-04-26T12:46:47.538624,15.26753193,.000094,43.0026,200.0973,268.3666,91.7077,0,U,57056,999,15765,-.9932E-4,-.2924E-4,0
STARLINK-6223,2023-088K,2026-04-26T08:19:47.199648,15.27570874,.000135,43.0015,201.2634,270.5012,89.5684,0,U,57057,999,15762,-.62826E-4,-.199E-4,0
STARLINK-6217,2023-088L,2026-04-26T12:34:28.803072,15.26743807,.0001157,43.0023,200.0381,275.5534,84.5185,0,U,57058,999,15765,.11111E-5,-.23E-5,0
STARLINK-6211,2023-088M,2026-04-26T12:38:30.827616,15.26742255,.0001075,43.0029,200.0436,271.4332,88.6396,0,U,57059,999,15765,.41708E-4,.859E-5,0
STARLINK-6227,2023-088N,2026-04-26T12:38:24.713088,15.27578503,.0001259,43.0022,200.8984,271.2761,88.7946,0,U,57060,999,15764,.27828E-4,.504E-5,0
STARLINK-5869,2023-088P,2026-04-26T12:00:02.000160,15.27392770,.0001796,42.9995,203.9010,277.9445,171.8548,0,U,57061,999,585,.21342E-2,.58599E-3,0
STARLINK-5536,2023-088Q,2026-04-26T12:03:48.108960,15.26740059,.0001209,43.0031,185.9971,266.7144,93.3569,0,U,57062,999,15781,.55358E-4,.1225E-4,0
STARLINK-5832,2023-088R,2026-04-26T06:46:15.955104,15.26778590,.000086,43.0030,201.6469,70.8795,289.2149,0,U,57063,999,15761,.14436E-3,.3619E-4,0
STARLINK-5822,2023-088S,2026-04-26T06:54:52.754112,15.27577462,.0001598,43.0014,201.6969,281.4984,78.5688,0,U,57064,999,15663,.46134E-4,.1007E-4,0
STARLINK-5830,2023-088T,2026-04-26T13:11:24.252000,15.26736232,.0001212,42.9991,203.6053,280.8968,79.1747,0,U,57065,999,15663,-.49987E-4,-.16E-4,0
STARLINK-5827,2023-088U,2026-04-26T06:50:19.348224,15.26739133,.0001255,43.0028,201.6720,267.5995,92.4713,0,U,57066,999,15663,.90145E-4,.2159E-4,0
STARLINK-5824,2023-088V,2026-04-26T11:58:51.407904,15.26721128,.0001862,43.0025,200.6958,270.6981,89.3657,0,U,57067,999,15764,.97039E-5,0,0
STARLINK-5844,2023-088W,2026-04-26T12:00:02.000160,15.21323393,.0001859,42.9991,204.0526,280.0005,110.1394,0,U,57068,999,585,.41097E-1,.100815E-1,0
STARLINK-5821,2023-088X,2026-04-26T11:23:29.139648,15.27576699,.0000604,42.9976,186.6651,244.8511,115.2278,0,U,57069,999,15763,.1646E-4,.191E-5,0
STARLINK-5828,2023-088Y,2026-04-26T06:04:00.676704,15.27577047,.0001106,43.0020,187.5979,282.6059,77.4669,0,U,57070,999,15777,-.14206E-5,-.301E-5,0
STARLINK-5834,2023-088Z,2026-04-26T11:08:35.189952,15.27258510,.0001849,43.0030,186.5976,265.2118,94.8522,0,U,57071,999,15763,.20742E-2,.56695E-3,0
STARLINK-5843,2023-088AA,2026-04-25T14:19:02.696736,15.26745788,.00020804,42.9976,191.2787,14.3993,345.6917,0,U,57072,999,15669,.47443336E-4,.1013E-4,0
STARLINK-5838,2023-088AB,2026-04-26T06:09:33.740064,15.27577725,.0001864,43.0034,187.6198,276.5997,83.4643,0,U,57073,999,15679,.49996E-4,.1114E-4,0
STARLINK-5773,2023-088AC,2026-04-26T12:00:02.000160,15.21499877,.0001879,42.9992,204.0600,280.0059,106.4648,0,U,57074,999,554,.43083E-1,.1066921E-1,0
STARLINK-5542,2023-088AD,2026-04-26T11:30:40.620384,15.27589012,.0001044,43.0014,185.8475,269.8688,90.2044,0,U,57075,999,15781,-.68877E-4,-.2157E-4,0
STARLINK-6155,2023-088AE,2026-04-26T06:20:40.107840,15.27573065,.0001757,43.0033,187.6753,274.3046,85.7604,0,U,57076,999,15760,.42115E-4,.897E-5,0
STARLINK-6194,2023-088AF,2026-04-26T11:01:25.077792,15.26739109,.0001348,42.9989,186.5557,250.9529,109.1176,0,U,57077,999,15797,-.84509E-5,-.486E-5,0
STARLINK-6245,2023-088AH,2026-04-26T11:40:58.606752,15.26752521,.0001207,43.0016,185.9015,275.9530,84.1184,0,U,57079,999,15781,.36772E-4,.727E-5,0
STARLINK-6243,2023-088AJ,2026-04-26T11:12:23.844096,15.27567949,.0001552,43.0024,186.6122,265.3904,94.6771,0,U,57080,999,15763,.13873E-4,.119E-5,0
STARLINK-6184,2023-088AK,2026-04-26T11:56:35.181024,15.27574905,.0001148,43.0015,185.9827,277.7526,82.3195,0,U,57081,999,15781,-.16299E-4,-.71E-5,0
STARLINK-6248,2023-088AL,2026-04-25T16:00:03.000096,15.27546700,.00014559,43.0010,190.4931,275.9841,267.0561,0,U,57082,999,581,.24632913E-2,.68081E-3,0
STARLINK-6253,2023-088AM,2026-04-24T13:12:14.952384,15.27534984,.00016961,43.0024,197.1647,264.1116,95.9542,0,U,57083,999,15751,.36354107E-3,.9741E-4,0
STARLINK-6240,2023-088AN,2026-04-26T05:19:51.602592,15.26330435,.0002961,43.0057,187.3531,357.0353,3.0480,0,U,57084,999,15777,-.18477E-2,-.48893E-3,0
STARLINK-6232,2023-088AP,2026-04-26T11:21:37.833120,15.26728561,.0001105,43.0023,185.8027,268.9663,91.1062,0,U,57085,999,15781,.19481E-4,.263E-5,0
STARLINK-6247,2023-088AQ,2026-04-26T11:48:47.839104,15.26743244,.0001204,43.0026,185.9379,265.8310,94.2403,0,U,57086,999,15781,.1739E-4,.207E-5,0
STARLINK-6251,2023-088AR,2026-04-26T11:34:22.791072,15.27574610,.0001179,43.0016,185.8667,286.9613,73.1109,0,U,57087,999,15781,-.55367E-5,-.414E-5,0
STARLINK-6257,2023-088AS,2026-04-26T05:51:05.088096,15.27574189,.0001362,43.0011,187.5176,272.1004,87.9692,0,U,57088,999,15777,.78185E-4,.189E-4,0
STARLINK-6259,2023-088AT,2026-04-26T11:46:02.860896,15.26734515,.0001196,43.0031,185.9203,264.8551,95.2164,0,U,57089,999,15781,.12867E-3,.3193E-4,0
STARLINK-6254,2023-088AU,2026-04-26T11:39:56.638944,15.27578902,.0001123,43.0022,185.8882,277.9588,82.1136,0,U,57090,999,15781,.52653E-4,.1187E-4,0
STARLINK-6262,2023-088AV,2026-04-26T11:49:10.950240,15.27576158,.0001175,43.0017,185.9392,271.5657,88.5060,0,U,57091,999,15781,-.46418E-5,-.39E-5,0
STARLINK-6225,2023-088AW,2026-04-26T11:35:48.117984,15.26742900,.000068,43.0012,185.8698,280.0593,80.0181,0,U,57092,999,15781,-.31254E-4,-.1098E-4,0
STARLINK-6229,2023-088AX,2026-04-26T11:47:12.590880,15.26738143,.0001039,43.0020,185.9267,271.9482,88.1250,0,U,57093,999,15781,-.66001E-5,-.437E-5,0
STARLINK-6235,2023-088AY,2026-04-26T05:54:45.803808,15.27572667,.0001079,43.0016,187.5297,263.4139,96.6590,0,U,57094,999,15777,-.18024E-5,-.312E-5,0
STARLINK-6132,2023-090A,2026-04-26T10:26:06.711360,15.27583353,.0001364,43.0033,11.9858,265.8908,94.1788,0,U,57101,999,15763,.66314E-4,.1563E-4,0
STARLINK-6111,2023-090B,2026-04-25T10:28:57.500832,15.26748030,.00013869,43.0007,17.3931,266.5203,93.5490,0,U,57102,999,15748,.26838126E-4,.46E-5,0
STARLINK-6130,2023-090D,2026-04-26T10:11:57.666336,15.26737560,.0000571,43.0053,11.9058,240.6754,119.4040,0,U,57104,999,15763,-.57223E-4,-.1794E-4,0
STARLINK-6097,2023-090E,2026-04-25T03:12:46.087200,15.26750335,.00015974,43.0017,19.4159,246.1888,113.8796,0,U,57105,999,15743,.11715888E-3,.2885E-4,0
STARLINK-6118,2023-090F,2026-04-26T09:57:26.050176,15.26743113,.0000766,43.0027,11.8290,266.2056,93.8708,0,U,57106,999,15763,.29134E-4,.522E-5,0
STARLINK-6131,2023-090G,2026-04-26T09:43:39.548640,15.26745314,.0000959,43.0017,11.7585,237.4771,122.5988,0,U,57107,999,15763,.18014E-4,.224E-5,0
STARLINK-6099,2023-090H,2026-04-26T10:17:41.400096,15.26740390,.0001368,43.0035,11.9351,264.3628,95.7067,0,U,57108,999,15763,.66802E-5,-.81E-6,0
